OBJECT_NAME,OBJECT_ID,EPOCH,MEAN_MOTION,ECCENTRICITY,INCLINATION,RA_OF_ASC_NODE,ARG_OF_PERICENTER,MEAN_ANOMALY,EPHEMERIS_TYPE,CLASSIFICATION_TYPE,NORAD_CAT_ID,ELEMENT_SET_NO,REV_AT_EPOCH,BSTAR,MEAN_MOTION_DOT,MEAN_MOTION_DDOT
OSCAR 7 (AO-7),1974-089B,2026-06-11T13:44:28.538592,12.53697991,.00125124,101.9901,175.7606,140.5736,350.4172,0,U,7530,999,35981,.11347994E-3,-.28E-6,0
PHASE 3B (AO-10),1983-058B,2026-06-07T04:08:14.383680,2.05872980,.60142661,25.9048,221.2242,112.9115,319.2048,0,U,14129,999,29528,0,-.194E-5,0
UOSAT 2 (UO-11),1984-021B,2026-06-11T10:46:34.498560,14.90768900,.00070993,97.8055,128.0879,191.8106,168.2947,0,U,14781,999,25627,.12402929E-3,.1163E-4,0
LUSAT (LO-19),1990-005G,2026-06-11T12:44:11.972832,14.34121495,.001082,98.8852,184.1803,218.5501,141.4911,0,U,20442,999,90158,.5426095E-4,.105E-5,0
EYESAT A (AO-27),1993-061C,2026-06-11T11:25:16.617792,14.30940682,.00094546,98.6881,229.8913,114.5060,245.7110,0,U,22825,999,70618,.42624166E-4,.67E-6,0
ITAMSAT (IO-26),1993-061D,2026-06-11T10:58:05.034144,14.31367413,.00100698,98.6828,229.7893,99.8969,260.3351,0,U,22826,999,70649,.42795239E-4,.69E-6,0
RADIO ROSTO (RS15),1994-085A,2026-06-11T14:48:51.055776,11.27583612,.01557723,64.8187,312.2244,4.9062,355.3347,0,U,23439,999,29527,-.12785643E-3,-.47E-6,0
JAS-2 (FO-29),1996-046B,2026-06-11T13:03:39.142656,13.53273928,.03508269,98.5245,12.1894,111.0367,252.8667,0,U,24278,999,47240,.46335294E-4,.14E-6,0
TECHSAT 1B (GO-32),1998-043D,2026-06-11T14:03:01.523520,14.24427354,.00007338,99.0065,155.2028,176.4907,183.6276,0,U,25397,999,45053,.41012145E-4,.48E-6,0
ISS (ZARYA),1998-067A,2026-06-11T12:18:41.484960,15.49175527,.00051194,51.6332,328.1749,173.4651,186.6405,0,U,25544,999,57087,.16294015E-3,.8593E-4,0
PCSAT (NO-44),2001-043C,2026-06-11T13:43:13.196928,14.31954128,.0006101,67.0509,258.7958,264.4159,95.6247,0,U,26931,999,28964,.57446668E-4,.71E-6,0
SAUDISAT 1C (SO-50),2002-058C,2026-06-11T13:24:05.207040,14.83034770,.00754033,64.5506,146.4007,263.5157,95.7360,0,U,27607,999,26362,.12536422E-3,.916E-5,0
CUTE-1 (CO-55),2003-031E,2026-06-11T13:23:16.003104,14.24332340,.00091392,98.6735,171.1873,194.6488,165.4428,0,U,27844,999,19087,.12921213E-3,.255E-5,0
CUBESAT XI-IV (CO-57),2003-031J,2026-06-11T13:02:34.843776,14.23617902,.00086807,98.6768,170.8906,214.5229,145.5387,0,U,27848,999,19057,.11636506E-3,.221E-5,0
MOZHAETS 4 (RS22),2003-042A,2026-06-11T15:34:37.924320,14.73458673,.00100388,98.3474,346.8520,289.4379,160.3055,0,U,27939,999,21473,.17277813E-3,.1068E-4,0
CUBESAT XI-V,2005-043F,2026-06-11T08:31:42.130272,14.72615440,.00132905,98.2977,317.8549,220.0353,139.9875,0,U,28895,999,10089,.18967865E-3,.1156E-4,0
CUTE-1.7+APD II (CO-65),2008-021C,2026-06-11T14:44:08.038752,15.09401750,.00102958,97.8272,143.9165,55.6986,304.5215,0,U,32785,999,98435,.31585816E-3,.4987E-4,0
SEEDS II (CO-66),2008-021J,2026-06-11T06:13:53.331456,15.32546772,.00019675,97.7517,159.8749,23.1856,336.9473,0,U,32791,999,98638,.48819833E-3,.15274E-3,0
YUBILEINY (RS30),2008-025A,2026-06-11T15:01:22.574208,12.43178834,.00190838,82.5049,358.9006,326.4437,33.5433,0,U,32953,999,81900,-.2038625E-5,.1E-6,0
KKS-1 (KISEKI),2009-002H,2026-06-11T14:08:45.538944,14.83109845,.00068371,98.1193,84.9429,317.1888,42.8792,0,U,33499,999,93536,.1494654E-3,.1162E-4,0
SWISSCUBE,2009-051B,2026-06-11T05:11:30.525792,14.62470076,.00056291,98.4041,70.0006,224.4191,135.6559,0,U,35932,999,88828,.16843955E-3,.804E-5,0
BEESAT-1,2009-051C,2026-06-11T05:20:37.623552,14.61710634,.0003964,98.3971,69.6549,240.4948,119.5857,0,U,35933,999,88831,.14238906E-3,.66E-5,0
ITUPSAT1,2009-051E,2026-06-11T04:59:59.441568,14.60431670,.00061318,98.4055,68.8386,256.4621,103.5895,0,U,35935,999,88786,.13682513E-3,.614E-5,0
XIWANG-1 (HOPE-1),2009-072B,2026-06-11T14:52:43.485600,13.16438940,.00068183,100.4019,116.5407,245.3430,114.6973,0,U,36122,999,79227,.27801141E-3,.62E-6,0
O/OREOS (USA 219),2010-062C,2026-06-11T12:05:19.018176,14.93720190,.00124277,71.9708,93.2127,75.4673,284.7875,0,U,37224,999,11579,.20188582E-3,.2078E-4,0
JUGNU,2011-058B,2026-06-10T20:49:05.609856,14.13775053,.00185632,19.9621,346.8221,6.6957,22.8320,0,U,37839,999,75813,.68784482E-4,.399E-5,0
SRMSAT,2011-058D,2026-06-11T12:22:46.150752,14.11574372,.00119094,19.9715,93.7945,141.4141,27.1536,0,U,37841,999,75701,.48953915E-4,.355E-5,0
STRAND-1,2013-009E,2026-06-11T11:40:12.874368,14.37160014,.00075038,98.3921,342.8611,244.6927,115.3483,0,U,39090,999,69624,.10128651E-3,.258E-5,0
ZACUBE-1 (TSHEPISOSAT),2013-066B,2026-06-11T11:23:51.095616,15.01152948,.00402103,97.8085,124.7807,267.7109,91.9510,0,U,39417,999,67987,.21783571E-3,.2775E-4,0
GOMX-1,2013-066Q,2026-06-11T14:27:15.852384,14.69439770,.01301768,97.6494,3.4179,95.2729,266.3347,0,U,39430,999,66909,.29765208E-3,.1957E-4,0
